{"type": "FeatureCollection", "features": [ {"type": "Feature", "properties": {"norad_id": 33779, "name": "COSMOS 2251 DEB", "group": "cosmos-2251-debris", "lat": -55.28037624671541, "lon": 125.64509311589914, "alt_km": 670.9061819512617, "timestamp": "2025-12-23T09:49:07.475388+00:00", "meta": {"OBJECT_NAME": "COSMOS 2251 DEB", "OBJECT_ID": "1993-036U", "EPOCH": "2025-12-22T19:57:24.166944", "MEAN_MOTION": 14.70693158, "ECCENTRICITY": 0.00161418, "INCLINATION": 74.0449, "RA_OF_ASC_NODE": 151.1498, "ARG_OF_PERICENTER": 184.0377, "MEAN_ANOMALY": 300.3473, "EPHEMERIS_TYPE": 0, "CLASSIFICATION_TYPE": "U", "NORAD_CAT_ID": 33779, "ELEMENT_SET_NO": 999, "REV_AT_EPOCH": 88676, "BSTAR": 0.0025398908, "MEAN_MOTION_DOT": 0.00015511, "MEAN_MOTION_DDOT": 0}, "tle": {"line1": "1 33779U 93036U   25356.83152971  .00015511  00000+0  25399-2 0  9999", "line2": "2 33779  74.0449 151.1498 0016141 184.0377 300.3473 14.70693158886760"}}, "geometry": {"type": "Point", "coordinates": [125.64509311589914, -55.28037624671541]}}, {"type": "Feature", "properties": {"norad_id": 33782, "name": "COSMOS 2251 DEB", "group": "cosmos-2251-debris", "lat": -13.200016291677453, "lon": -106.03547337941295, "alt_km": 747.48433727054, "timestamp": "2025-12-23T09:49:07.475399+00:00", "meta": {"OBJECT_NAME": "COSMOS 2251 DEB", "OBJECT_ID": "1993-036X", "EPOCH": "2025-12-22T17:21:16.172640", "MEAN_MOTION": 14.40471003, "ECCENTRICITY": 0.00210782, "INCLINATION": 74.0329, "RA_OF_ASC_NODE": 259.0833, "ARG_OF_PERICENTER": 322.6294, "MEAN_ANOMALY": 67.6356, "EPHEMERIS_TYPE": 0, "CLASSIFICATION_TYPE": "U", "NORAD_CAT_ID": 33782, "ELEMENT_SET_NO": 999, "REV_AT_EPOCH": 88270, "BSTAR": 0.00030695888, "MEAN_MOTION_DOT": 9.52e-06, "MEAN_MOTION_DDOT": 0}, "tle": {"line1": "1 33782U 93036X   25356.72310385  .00000952  00000+0  30696-3 0  9996", "line2": "2 33782  74.0329 259.0833 0021078 322.6294  67.6356 14.40471003882708"}}, "geometry": {"type": "Point", "coordinates": [-106.03547337941295, -13.200016291677453]}}, {"type": "Feature", "properties": {"norad_id": 33785, "name": "COSMOS 2251 DEB", "group": "cosmos-2251-debris", "lat": -73.01289137670223, "lon": -32.351121276737004, "alt_km": 657.809772830653, "timestamp": "2025-12-23T09:49:07.475409+00:00", "meta": {"OBJECT_NAME": "COSMOS 2251 DEB", "OBJECT_ID": "1993-036AA", "EPOCH": "2025-12-22T13:42:36.152064", "MEAN_MOTION": 14.70690222, "ECCENTRICITY": 0.00231908, "INCLINATION": 73.8666, "RA_OF_ASC_NODE": 40.6508, "ARG_OF_PERICENTER": 338.2242, "MEAN_ANOMALY": 183.1147, "EPHEMERIS_TYPE": 0, "CLASSIFICATION_TYPE": "U", "NORAD_CAT_ID": 33785, "ELEMENT_SET_NO": 999, "REV_AT_EPOCH": 88651, "BSTAR": 0.0020448971, "MEAN_MOTION_DOT": 0.000125, "MEAN_MOTION_DDOT": 0}, "tle": {"line1": "1 33785U 93036AA  25356.57125176  .00012500  00000+0  20449-2 0  9990", "line2": "2 33785  73.8666  40.6508 0023190 338.2242 183.1147 14.70690222886512"}}, "geometry": {"type": "Point", "coordinates": [-32.351121276737004, -73.01289137670223]}}, {"type": "Feature", "properties": {"norad_id": 33789, "name": "COSMOS 2251 DEB", "group": "cosmos-2251-debris", "lat": -14.453491033996082, "lon": -106.47776295139033, "alt_km": 765.6126447308288, "timestamp": "2025-12-23T09:49:07.475420+00:00", "meta": {"OBJECT_NAME": "COSMOS 2251 DEB", "OBJECT_ID": "1993-036AE", "EPOCH": "2025-12-22T16:11:25.511712", "MEAN_MOTION": 13.8881693, "ECCENTRICITY": 0.02397063, "INCLINATION": 74.0644, "RA_OF_ASC_NODE": 70.5452, "ARG_OF_PERICENTER": 183.9896, "MEAN_ANOMALY": 299.4034, "EPHEMERIS_TYPE": 0, "CLASSIFICATION_TYPE": "U", "NORAD_CAT_ID": 33789, "ELEMENT_SET_NO": 999, "REV_AT_EPOCH": 85233, "BSTAR": 0.00059510814, "MEAN_MOTION_DOT": 8.81e-06, "MEAN_MOTION_DDOT": 0}, "tle": {"line1": "1 33789U 93036AE  25356.67460083  .00000881  00000+0  59511-3 0  9996", "line2": "2 33789  74.0644  70.5452 0239706 183.9896 299.4034 13.88816930852330"}}, "geometry": {"type": "Point", "coordinates": [-106.47776295139033, -14.453491033996082]}}, {"type": "Feature", "properties": {"norad_id": 33791, "name": "COSMOS 2251 DEB", "group": "cosmos-2251-debris", "lat": -6.319467620443972, "lon": 16.132598782430748, "alt_km": 767.9793207514494, "timestamp": "2025-12-23T09:49:07.475430+00:00", "meta": {"OBJECT_NAME": "COSMOS 2251 DEB", "OBJECT_ID": "1993-036AG", "EPOCH": "2025-12-22T19:41:53.054880", "MEAN_MOTION": 14.43174553, "ECCENTRICITY": 0.00301371, "INCLINATION": 74.1745, "RA_OF_ASC_NODE": 19.0157, "ARG_OF_PERICENTER": 214.2974, "MEAN_ANOMALY": 323.4864, "EPHEMERIS_TYPE": 0, "CLASSIFICATION_TYPE": "U", "NORAD_CAT_ID": 33791, "ELEMENT_SET_NO": 999, "REV_AT_EPOCH": 88197, "BSTAR": 0.0008105211, "MEAN_MOTION_DOT": 2.714e-05, "MEAN_MOTION_DDOT": 0}, "tle": {"line1": "1 33791U 93036AG  25356.82075295  .00002714  00000+0  81052-3 0  9995", "line2": "2 33791  74.1745  19.0157 0030137 214.2974 323.4864 14.43174553881979"}}, "geometry": {"type": "Point", "coordinates": [16.132598782430748, -6.319467620443972]}}, {"type": "Feature", "properties": {"norad_id": 33792, "name": "COSMOS 2251 DEB", "group": "cosmos-2251-debris", "lat": -72.76785278875836, "lon": -143.09423945616192, "alt_km": 1278.8529401518972, "timestamp": "2025-12-23T09:49:07.475440+00:00", "meta": {"OBJECT_NAME": "COSMOS 2251 DEB", "OBJECT_ID": "1993-036AH", "EPOCH": "2025-12-22T21:54:04.027968", "MEAN_MOTION": 13.4584187, "ECCENTRICITY": 0.04276847, "INCLINATION": 73.9013, "RA_OF_ASC_NODE": 329.0985, "ARG_OF_PERICENTER": 31.8889, "MEAN_ANOMALY": 350.8661, "EPHEMERIS_TYPE": 0, "CLASSIFICATION_TYPE": "U", "NORAD_CAT_ID": 33792, "ELEMENT_SET_NO": 999, "REV_AT_EPOCH": 82579, "BSTAR": 0.0010508769, "MEAN_MOTION_DOT": 1.07e-05, "MEAN_MOTION_DDOT": 0}, "tle": {"line1": "1 33792U 93036AH  25356.91254662  .00001070  00000+0  10509-2 0  9995", "line2": "2 33792  73.9013 329.0985 0427684  31.8889 350.8661 13.45841870825794"}}, "geometry": {"type": "Point", "coordinates": [-143.09423945616192, -72.76785278875836]}}, {"type": "Feature", "properties": {"norad_id": 33793, "name": "COSMOS 2251 DEB", "group": "cosmos-2251-debris", "lat": 6.695454280739288, "lon": 132.45917101519063, "alt_km": 799.0607181196519, "timestamp": "2025-12-23T09:49:07.475457+00:00", "meta": {"OBJECT_NAME": "COSMOS 2251 DEB", "OBJECT_ID": "1993-036AJ", "EPOCH": "2025-12-22T12:15:08.768160", "MEAN_MOTION": 14.27754603, "ECCENTRICITY": 0.00788456, "INCLINATION": 73.9806, "RA_OF_ASC_NODE": 132.1591, "ARG_OF_PERICENTER": 280.3462, "MEAN_ANOMALY": 148.9527, "EPHEMERIS_TYPE": 0, "CLASSIFICATION_TYPE": "U", "NORAD_CAT_ID": 33793, "ELEMENT_SET_NO": 999, "REV_AT_EPOCH": 87346, "BSTAR": 0.00065880221, "MEAN_MOTION_DOT": 1.655e-05, "MEAN_MOTION_DDOT": 0}, "tle": {"line1": "1 33793U 93036AJ  25356.51051815  .00001655  00000+0  65880-3 0  9999", "line2": "2 33793  73.9806 132.1591 0078845 280.3462 148.9527 14.27754603873462"}}, "geometry": {"type": "Point", "coordinates": [132.45917101519063, 6.695454280739288]}}, {"type": "Feature", "properties": {"norad_id": 33795, "name": "COSMOS 2251 DEB", "group": "cosmos-2251-debris", "lat": 59.132467744804316, "lon": 83.47884769047951, "alt_km": 536.012403233959, "timestamp": "2025-12-23T09:49:07.475480+00:00", "meta": {"OBJECT_NAME": "COSMOS 2251 DEB", "OBJECT_ID": "1993-036AL", "EPOCH": "2025-12-22T13:18:52.443360", "MEAN_MOTION": 15.05824898, "ECCENTRICITY": 0.00303571, "INCLINATION": 74.0323, "RA_OF_ASC_NODE": 56.6077, "ARG_OF_PERICENTER": 136.546, "MEAN_ANOMALY": 337.6477, "EPHEMERIS_TYPE": 0, "CLASSIFICATION_TYPE": "U", "NORAD_CAT_ID": 33795, "ELEMENT_SET_NO": 999, "REV_AT_EPOCH": 90169, "BSTAR": 0.0012136516, "MEAN_MOTION_DOT": 0.00017797, "MEAN_MOTION_DDOT": 0}, "tle": {"line1": "1 33795U 93036AL  25356.55477365  .00017797  00000+0  12137-2 0  9997", "line2": "2 33795  74.0323  56.6077 0030357 136.5460 337.6477 15.05824898901694"}}, "geometry": {"type": "Point", "coordinates": [83.47884769047951, 59.132467744804316]}}, {"type": "Feature", "properties": {"norad_id": 33797, "name": "COSMOS 2251 DEB", "group": "cosmos-2251-debris", "lat": -27.50340274553367, "lon": -156.75290077384187, "alt_km": 719.3060298436121, "timestamp": "2025-12-23T09:49:07.475516+00:00", "meta": {"OBJECT_NAME": "COSMOS 2251 DEB", "OBJECT_ID": "1993-036AN", "EPOCH": "2025-12-22T11:58:25.315968", "MEAN_MOTION": 14.57880559, "ECCENTRICITY": 0.00603835, "INCLINATION": 74.0464, "RA_OF_ASC_NODE": 16.4112, "ARG_OF_PERICENTER": 101.3166, "MEAN_ANOMALY": 11.4661, "EPHEMERIS_TYPE": 0, "CLASSIFICATION_TYPE": "U", "NORAD_CAT_ID": 33797, "ELEMENT_SET_NO": 999, "REV_AT_EPOCH": 89127, "BSTAR": 0.00034277848, "MEAN_MOTION_DOT": 1.581e-05, "MEAN_MOTION_DDOT": 0}, "tle": {"line1": "1 33797U 93036AN  25356.49890412  .00001581  00000+0  34278-3 0  9999", "line2": "2 33797  74.0464  16.4112 0060383 101.3166  11.4661 14.57880559891277"}}, "geometry": {"type": "Point", "coordinates": [-156.75290077384187, -27.50340274553367]}}, {"type": "Feature", "properties": {"norad_id": 33798, "name": "COSMOS 2251 DEB", "group": "cosmos-2251-debris", "lat": -56.4464676675498, "lon": 90.45130429829918, "alt_km": 721.5687674200826, "timestamp": "2025-12-23T09:49:07.475538+00:00", "meta": {"OBJECT_NAME": "COSMOS 2251 DEB", "OBJECT_ID": "1993-036AP", "EPOCH": "2025-12-22T11:08:50.394624", "MEAN_MOTION": 14.44626394, "ECCENTRICITY": 0.0092366, "INCLINATION": 74.0292, "RA_OF_ASC_NODE": 117.7918, "ARG_OF_PERICENTER": 237.0475, "MEAN_ANOMALY": 191.1937, "EPHEMERIS_TYPE": 0, "CLASSIFICATION_TYPE": "U", "NORAD_CAT_ID": 33798, "ELEMENT_SET_NO": 999, "REV_AT_EPOCH": 88734, "BSTAR": 0.00017197454, "MEAN_MOTION_DOT": 5.98e-06, "MEAN_MOTION_DDOT": 0}, "tle": {"line1": "1 33798U 93036AP  25356.46447216  .00000598  00000+0  17197-3 0  9995", "line2": "2 33798  74.0292 117.7918 0092366 237.0475 191.1937 14.44626394887348"}}, "geometry": {"type": "Point", "coordinates": [90.45130429829918, -56.4464676675498]}}]}